OBJECT_NAME,OBJECT_ID,EPOCH,MEAN_MOTION,ECCENTRICITY,INCLINATION,RA_OF_ASC_NODE,ARG_OF_PERICENTER,MEAN_ANOMALY,EPHEMERIS_TYPE,CLASSIFICATION_TYPE,NORAD_CAT_ID,ELEMENT_SET_NO,REV_AT_EPOCH,BSTAR,MEAN_MOTION_DOT,MEAN_MOTION_DDOT
DMSP 5D-3 F16 (USA 172),2003-048A,2026-07-08T04:14:40.113888,14.14484940,.0008211,98.9886,213.1434,88.4098,350.5966,0,U,28054,999,17245,.10428E-4,-.25E-6,0
METEOSAT-9 (MSG-2),2005-049B,2026-07-08T04:39:51.787296,1.00269147,.0002122,9.4059,53.9555,359.9500,347.9048,0,U,28912,999,720,0,.132E-5,0
DMSP 5D-3 F17 (USA 191),2006-050A,2026-07-08T04:06:08.153280,14.14995878,.0010157,98.7383,195.3119,3.1501,356.9734,0,U,29522,999,1539,.19697E-4,-.5E-7,0
FENGYUN 3A,2008-026A,2026-07-07T20:09:31.273056,14.19575463,.0009853,98.6886,129.2871,70.9131,289.3111,0,U,32958,999,93833,.40827E-4,.43E-6,0
GOES 14,2009-033A,2026-07-08T04:26:38.535072,1.00101941,.0001996,1.7406,82.7877,35.8788,3.5369,0,U,35491,999,680,0,-.336E-5,0
DMSP 5D-3 F18 (USA 210),2009-057A,2026-07-08T05:08:40.977024,14.14908306,.0010796,98.9050,169.9389,185.2801,174.8259,0,U,35951,999,86256,.13629E-3,.219E-5,0
EWS-G2 (GOES 15),2010-008A,2026-07-08T03:44:07.955232,1.00268165,.0005292,1.3319,82.5589,51.3211,271.6673,0,U,36411,999,5984,0,.36E-6,0
COMS 1,2010-032A,2026-07-07T00:02:01.505184,0.99169409,.00114407,4.8529,75.1185,14.6993,190.2555,0,U,36744,999,5128,0,-.175E-5,0
FENGYUN 3B,2010-059A,2026-07-08T05:45:44.086176,14.14845362,.0022989,98.9608,235.3430,125.3525,314.2499,0,U,37214,999,81040,-.11038E-3,-.259E-5,0
SUOMI NPP,2011-061A,2026-07-08T03:12:49.243392,14.19521599,.0000564,98.7955,129.8673,266.9547,93.1564,0,U,37849,999,76141,.38928E-4,.38E-6,0
METEOSAT-10 (MSG-3),2012-035B,2026-07-08T00:00:46.540224,1.00269791,.0001241,4.7178,60.9132,18.7358,206.5862,0,U,38552,999,5106,0,.5E-7,0
METOP-B,2012-049A,2026-07-08T03:59:12.112224,14.21445021,.0001101,98.6492,240.2456,298.8683,61.2384,0,U,38771,999,71624,.47635E-4,.61E-6,0
INSAT-3D,2013-038B,2026-07-08T04:18:39.080736,1.00272109,.0000517,1.9770,82.2806,64.1346,333.9108,0,U,39216,999,4729,0,-.325E-5,0
FENGYUN 3C,2013-052A,2026-07-08T04:12:13.175136,14.15759678,.0013997,98.4992,162.0876,327.3481,32.6827,0,U,39260,999,66153,.51645E-4,.6E-6,0
METEOR-M 2,2014-037A,2026-07-08T04:36:43.994304,14.21469270,.0005597,98.5129,164.1878,348.7535,11.3517,0,U,40069,999,62230,.25456E-3,.515E-5,0
HIMAWARI-8,2014-060A,2026-07-08T03:46:38.775072,1.00270240,.0000867,0.0362,279.1754,203.1578,1.1069,0,U,40267,999,4297,0,-.261E-5,0
FENGYUN 2G,2014-090A,2026-07-07T19:12:21.597408,1.00263947,.0003874,5.6876,72.5714,150.3057,90.4158,0,U,40367,999,4220,0,-.288E-5,0
METEOSAT-11 (MSG-4),2015-034A,2026-07-08T03:28:39.437760,1.00269657,.0002253,3.2525,70.9802,351.3598,285.1916,0,U,40732,999,742,0,.74E-6,0
ELEKTRO-L 2,2015-074A,2026-07-07T22:13:54.581952,1.00273213,.0000653,6.7424,70.2697,234.7968,299.7776,0,U,41105,999,3871,0,-.107E-5,0
SENTINEL-3A,2016-011A,2026-07-08T04:26:58.603200,14.26738476,.0001408,98.6240,256.2665,92.2709,267.8633,0,U,41335,999,54105,.48243E-4,.73E-6,0
INSAT-3DR,2016-054A,2026-07-08T04:42:21.744000,1.00272156,.001048,0.0514,89.3306,181.2584,160.1529,0,U,41752,999,3602,0,-.62E-6,0
HIMAWARI-9,2016-064A,2026-07-07T21:15:34.676064,1.00271011,.0002188,0.0160,20.5201,154.3343,210.6522,0,U,41836,999,3541,0,0,0
GOES 16,2016-071A,2026-07-08T02:56:11.394240,1.00271417,.0000483,0.3895,85.6220,74.9630,64.8577,0,U,41866,999,3531,0,-.76E-6,0
FENGYUN 4A,2016-077A,2026-07-07T23:44:38.799744,1.00272677,.0008197,2.3719,80.0604,157.9543,167.8791,0,U,41882,999,3513,0,-.343E-5,0
CYGFM05,2016-078A,2026-07-08T03:27:37.141632,15.57608839,.0007336,34.9560,121.7183,330.6705,29.3607,0,U,41884,999,53202,.22999E-3,.17563E-3,0
CYGFM04,2016-078B,2026-07-08T02:40:56.131392,15.62749371,.0005351,34.9321,88.5432,7.7916,352.2892,0,U,41885,999,53227,.24883E-3,.23171E-3,0
CYGFM02,2016-078C,2026-07-08T03:14:07.175328,15.65960814,.000617,34.9398,82.2921,12.3891,347.6987,0,U,41886,999,53245,.25702E-3,.2722E-3,0
CYGFM01,2016-078D,2026-07-08T04:30:09.315648,15.58319660,.000727,34.9388,122.3144,325.4091,34.6160,0,U,41887,999,53198,.22612E-3,.17739E-3,0
CYGFM08,2016-078E,2026-07-08T02:38:35.777184,15.61151310,.0007537,34.9425,101.8411,356.9798,3.0881,0,U,41888,999,53224,.22045E-3,.19283E-3,0
CYGFM07,2016-078G,2026-07-08T03:09:54.406080,15.61262020,.0005745,34.9441,90.0194,9.2522,350.8308,0,U,41890,999,53227,.23917E-3,.21008E-3,0
CYGFM03,2016-078H,2026-07-08T02:28:20.199648,15.61247150,.0005932,34.9394,92.1437,355.4199,4.6471,0,U,41891,999,53224,.22305E-3,.19574E-3,0
