DMSP 5D-3 F16 (USA 172) 
1 28054U 03048A   26189.17685317 -.00000025  00000+0  10428-4 0  9994
2 28054  98.9886 213.1434 0008211  88.4098 350.5966 14.14484940172458
METEOSAT-9 (MSG-2)      
1 28912U 05049B   26189.19434939  .00000132  00000+0  00000+0 0  9992
2 28912   9.4059  53.9555 0002122 359.9500 347.9048  1.00269147  7205
DMSP 5D-3 F17 (USA 191) 
1 29522U 06050A   26189.17092770 -.00000005  00000+0  19697-4 0  9991
2 29522  98.7383 195.3119 0010157   3.1501 356.9734 14.14995878 15394
FENGYUN 3A              
1 32958U 08026A   26188.83994529  .00000043  00000+0  40827-4 0  9998
2 32958  98.6886 129.2871 0009853  70.9131 289.3111 14.19575463938336
GOES 14                 
1 35491U 09033A   26189.18516823 -.00000336  00000+0  00000+0 0  9998
2 35491   1.7406  82.7877 0001996  35.8788   3.5369  1.00101941  6802
DMSP 5D-3 F18 (USA 210) 
1 35951U 09057A   26189.21436316  .00000219  00000+0  13629-3 0  9991
2 35951  98.9050 169.9389 0010796 185.2801 174.8259 14.14908306862568
EWS-G2 (GOES 15)        
1 36411U 10008A   26189.15564763  .00000036  00000+0  00000+0 0  9994
2 36411   1.3319  82.5589 0005292  51.3211 271.6673  1.00268165 59849
COMS 1                  
1 36744U 10032A   26188.00140631 -.00000175  00000+0  00000+0 0  9992
2 36744   4.8529  75.1185 0011440  14.6993 190.2555  0.99169409 51283
FENGYUN 3B              
1 37214U 10059A   26189.24009359 -.00000259  00000+0 -11038-3 0  9993
2 37214  98.9608 235.3430 0022989 125.3525 314.2499 14.14845362810405
SUOMI NPP               
1 37849U 11061A   26189.13390328  .00000038  00000+0  38928-4 0  9999
2 37849  98.7955 129.8673 0000564 266.9547  93.1564 14.19521599761419
METEOSAT-10 (MSG-3)     
1 38552U 12035B   26189.00053866  .00000005  00000+0  00000+0 0  9991
2 38552   4.7178  60.9132 0001241  18.7358 206.5862  1.00269791 51069
METOP-B                 
1 38771U 12049A   26189.16611241  .00000061  00000+0  47635-4 0  9995
2 38771  98.6492 240.2456 0001101 298.8683  61.2384 14.21445021716244
INSAT-3D                
1 39216U 13038B   26189.17961899 -.00000325  00000+0  00000+0 0  9991
2 39216   1.9770  82.2806 0000517  64.1346 333.9108  1.00272109 47291
FENGYUN 3C              
1 39260U 13052A   26189.17515249  .00000060  00000+0  51645-4 0  9991
2 39260  98.4992 162.0876 0013997 327.3481  32.6827 14.15759678661532
METEOR-M 2              
1 40069U 14037A   26189.19217586  .00000515  00000+0  25456-3 0  9994
2 40069  98.5129 164.1878 0005597 348.7535  11.3517 14.21469270622308
HIMAWARI-8              
1 40267U 14060A   26189.15739323 -.00000261  00000+0  00000+0 0  9997
2 40267   0.0362 279.1754 0000867 203.1578   1.1069  1.00270240 42979
FENGYUN 2G              
1 40367U 14090A   26188.80024997 -.00000288  00000+0  00000+0 0  9995
2 40367   5.6876  72.5714 0003874 150.3057  90.4158  1.00263947 42200
METEOSAT-11 (MSG-4)     
1 40732U 15034A   26189.14490090  .00000074  00000+0  00000+0 0  9991
2 40732   3.2525  70.9802 0002253 351.3598 285.1916  1.00269657  7428
ELEKTRO-L 2             
1 41105U 15074A   26188.92632618 -.00000107  00000+0  00000+0 0  9997
2 41105   6.7424  70.2697 0000653 234.7968 299.7776  1.00273213 38715
SENTINEL-3A             
1 41335U 16011A   26189.18540050  .00000073  00000+0  48243-4 0  9998
2 41335  98.6240 256.2665 0001408  92.2709 267.8633 14.26738476541059
INSAT-3DR               
1 41752U 16054A   26189.19608500 -.00000062  00000+0  00000+0 0  9997
2 41752   0.0514  89.3306 0010480 181.2584 160.1529  1.00272156 36021
HIMAWARI-9              
1 41836U 16064A   26188.88581801  .00000000  00000+0  00000+0 0  9991
2 41836   0.0160  20.5201 0002188 154.3343 210.6522  1.00271011 35417
GOES 16                 
1 41866U 16071A   26189.12235410 -.00000076  00000+0  00000+0 0  9996
2 41866   0.3895  85.6220 0000483  74.9630  64.8577  1.00271417 35311
FENGYUN 4A              
1 41882U 16077A   26188.98933796 -.00000343  00000+0  00000+0 0  9992
2 41882   2.3719  80.0604 0008197 157.9543 167.8791  1.00272677 35137
CYGFM05                 
1 41884U 16078A   26189.14417988  .00017563  00000+0  22999-3 0  9990
2 41884  34.9560 121.7183 0007336 330.6705  29.3607 15.57608839532021
CYGFM04                 
1 41885U 16078B   26189.11176078  .00023171  00000+0  24883-3 0  9996
2 41885  34.9321  88.5432 0005351   7.7916 352.2892 15.62749371532279
CYGFM02                 
1 41886U 16078C   26189.13480527  .00027220  00000+0  25702-3 0  9996
2 41886  34.9398  82.2921 0006170  12.3891 347.6987 15.65960814532455
CYGFM01                 
1 41887U 16078D   26189.18760782  .00017739  00000+0  22612-3 0  9997
2 41887  34.9388 122.3144 0007270 325.4091  34.6160 15.58319660531982
CYGFM08                 
1 41888U 16078E   26189.11013631  .00019283  00000+0  22045-3 0  9991
2 41888  34.9425 101.8411 0007537 356.9798   3.0881 15.61151310532243
CYGFM07                 
1 41890U 16078G   26189.13187970  .00021008  00000+0  23917-3 0  9991
2 41890  34.9441  90.0194 0005745   9.2522 350.8308 15.61262020532274
CYGFM03                 
1 41891U 16078H   26189.10301157  .00019574  00000+0  22305-3 0  9999
2 41891  34.9394  92.1437 0005932 355.4199   4.6471 15.61247150532248
